[{"OBJECT_NAME":"STARLINK-4729","OBJECT_ID":"2022-111AH","EPOCH":"2026-03-09T17:13:08.629536","MEAN_MOTION":15.08837677,"ECCENTRICITY":0.0001326,"INCLINATION":53.2158,"RA_OF_ASC_NODE":258.779,"ARG_OF_PERICENTER":89.1228,"MEAN_ANOMALY":270.9916,"EPHEMERIS_TYPE":0,"CLASSIFICATION_TYPE":"U","NORAD_CAT_ID":53804,"ELEMENT_SET_NO":999,"REV_AT_EPOCH":19389,"BSTAR":1.5779674e-5,"MEAN_MOTION_DOT":-3.7e-7,"MEAN_MOTION_DDOT":0},{"OBJECT_NAME":"FENGYUN 1C DEB","OBJECT_ID":"1999-025BNW","EPOCH":"2026-03-06T10:01:07.743936","MEAN_MOTION":15.11996262,"ECCENTRICITY":0.00143439,"INCLINATION":98.7438,"RA_OF_ASC_NODE":239.2093,"ARG_OF_PERICENTER":346.0612,"MEAN_ANOMALY":44.2284,"EPHEMERIS_TYPE":0,"CLASSIFICATION_TYPE":"U","NORAD_CAT_ID":31288,"ELEMENT_SET_NO":999,"REV_AT_EPOCH":98814,"BSTAR":0.0072973407,"MEAN_MOTION_DOT":0.00127645,"MEAN_MOTION_DDOT":0}]
